OBJECT_NAME,OBJECT_ID,EPOCH,MEAN_MOTION,ECCENTRICITY,INCLINATION,RA_OF_ASC_NODE,ARG_OF_PERICENTER,MEAN_ANOMALY,EPHEMERIS_TYPE,CLASSIFICATION_TYPE,NORAD_CAT_ID,ELEMENT_SET_NO,REV_AT_EPOCH,BSTAR,MEAN_MOTION_DOT,MEAN_MOTION_DDOT
OSCAR 7 (AO-7),1974-089B,2026-07-17T22:40:32.498112,12.53698623,.0012645,101.9906,212.5120,73.3038,347.7353,0,U,7530,999,36437,.2403953E-5,-.46E-6,0
PHASE 3B (AO-10),1983-058B,2026-07-13T02:29:46.528800,2.05872336,.60022234,25.9345,215.2934,122.7887,309.2966,0,U,14129,999,29602,0,-.187E-5,0
UOSAT 2 (UO-11),1984-021B,2026-07-17T21:28:09.342912,14.90852514,.00092508,97.8078,164.1312,83.9796,276.2476,0,U,14781,999,26170,.59556283E-4,.531E-5,0
LUSAT (LO-19),1990-005G,2026-07-17T19:26:53.355264,14.34131167,.00126018,98.8847,221.4588,114.3508,245.8992,0,U,20442,999,90678,.26428864E-4,.27E-6,0
EYESAT A (AO-27),1993-061C,2026-07-17T15:02:03.180480,14.30949457,.00086194,98.6866,266.0266,19.0842,341.0662,0,U,22825,999,71135,.28071771E-4,.29E-6,0
ITAMSAT (IO-26),1993-061D,2026-07-17T22:42:37.236384,14.31377167,.00087605,98.6813,266.2668,1.3832,358.7374,0,U,22826,999,71171,.30204264E-4,.35E-6,0
RADIO ROSTO (RS15),1994-085A,2026-07-17T19:15:27.792864,11.27583566,.0157019,64.8150,253.7041,358.2286,1.8064,0,U,23439,999,29935,.29191595E-4,-.41E-6,0
JAS-2 (FO-29),1996-046B,2026-07-17T09:38:32.152128,13.53275797,.0350252,98.5218,43.1320,18.2236,343.1097,0,U,24278,999,47725,.16007E-4,-.19E-6,0
TECHSAT 1B (GO-32),1998-043D,2026-07-17T21:37:26.819040,14.24433664,.00022597,99.0087,192.4369,110.8324,249.3096,0,U,25397,999,45570,.22605347E-4,.6E-7,0
ISS (ZARYA),1998-067A,2026-07-17T19:56:26.020608,15.49035972,.00067917,51.6316,148.4431,307.8623,52.1750,0,U,25544,999,57650,.77849885E-4,.3846E-4,0
PCSAT (NO-44),2001-043C,2026-07-17T13:00:24.645024,14.31965477,.0005892,67.0496,165.7597,266.8164,93.2264,0,U,26931,999,29479,.38081E-4,.19E-6,0
SAUDISAT 1C (SO-50),2002-058C,2026-07-17T13:35:59.912160,14.83100826,.0074455,64.5519,34.9873,256.8352,102.4439,0,U,27607,999,26896,.58139E-4,.339E-5,0
CUTE-1 (CO-55),2003-031E,2026-07-17T22:42:23.359680,14.24352549,.00108632,98.6744,207.1188,95.5982,264.6436,0,U,27844,999,19605,.75281132E-4,.13E-5,0
CUBESAT XI-IV (CO-57),2003-031J,2026-07-17T22:48:02.109024,14.23635431,.00106323,98.6776,206.8106,112.1739,248.0569,0,U,27848,999,19575,.66203101E-4,.107E-5,0
MOZHAETS 4 (RS22),2003-042A,2026-07-17T23:47:44.816352,14.73518823,.00114299,98.3471,24.2220,164.4046,350.7475,0,U,27939,999,22008,.15288169E-3,.941E-5,0
CUBESAT XI-V,2005-043F,2026-07-16T23:00:13.929984,14.72704810,.0015312,98.3017,354.2118,110.0551,250.2305,0,U,28895,999,10613,.10709E-3,.631E-5,0
CUTE-1.7+APD II (CO-65),2008-021C,2026-07-17T22:31:22.761696,15.09714947,.00068495,97.8298,181.0062,288.2126,71.8356,0,U,32785,999,98983,.13738606E-3,.2148E-4,0
SEEDS II (CO-66),2008-021J,2026-07-17T22:32:29.035680,15.33723545,.00033811,97.7530,198.3304,150.6464,209.4968,0,U,32791,999,99200,.32083578E-3,.10382E-3,0
YUBILEINY (RS30),2008-025A,2026-07-17T22:07:03.393984,12.43180655,.00186801,82.5067,336.3204,242.6036,117.3143,0,U,32953,999,82351,.34411612E-4,.15E-6,0
KKS-1 (KISEKI),2009-002H,2026-07-17T21:15:06.699744,14.83192769,.00076443,98.1173,121.8141,180.0183,180.1031,0,U,33499,999,94074,.79687877E-4,.595E-5,0
SWISSCUBE,2009-051B,2026-07-17T16:22:26.527872,14.62533257,.00079463,98.4004,107.0987,112.4041,247.8002,0,U,35932,999,89361,.95101173E-4,.433E-5,0
BEESAT-1,2009-051C,2026-07-17T16:59:00.359520,14.61763986,.00062406,98.3931,106.6958,123.4432,236.7366,0,U,35933,999,89364,.80630624E-4,.353E-5,0
ITUPSAT1,2009-051E,2026-07-17T04:15:10.956960,14.60480346,.00082048,98.4015,105.3171,137.6090,222.5745,0,U,35935,999,89311,.79458509E-4,.337E-5,0
XIWANG-1 (HOPE-1),2009-072B,2026-07-17T22:44:26.109888,13.16438183,.00076154,100.4042,152.2910,158.8103,201.3326,0,U,36122,999,79705,-.84144236E-3,-.366E-5,0
O/OREOS (USA 219),2010-062C,2026-07-17T20:48:25.802784,14.93857336,.00141431,71.9699,10.8352,359.8966,0.2199,0,U,37224,999,12122,.99550262E-4,.995E-5,0
JUGNU,2011-058B,2026-07-17T22:17:59.040384,14.13783872,.00186229,19.9598,121.6521,56.5720,11.8015,0,U,37839,999,76338,.40495761E-4,.344E-5,0
SRMSAT,2011-058D,2026-07-17T11:48:44.276832,14.11581368,.0011702,19.9706,236.0426,176.3977,328.2795,0,U,37841,999,76210,.31755E-4,.324E-5,0
STRAND-1,2013-009E,2026-07-17T11:31:59.747232,14.37179617,.0009516,98.3936,17.9715,134.8937,225.3024,0,U,39090,999,70141,.50178E-4,.107E-5,0
ZACUBE-1 (TSHEPISOSAT),2013-066B,2026-07-17T20:48:51.576768,15.01335799,.00440515,97.8005,161.3542,146.6146,213.7870,0,U,39417,999,68533,.10037859E-3,.1255E-4,0
GOMX-1,2013-066Q,2026-07-17T19:50:25.113120,14.69546025,.01280092,97.6462,37.3556,339.7357,19.8795,0,U,39430,999,67441,.99362775E-4,.615E-5,0
