OSCAR 7 (AO-7)          
1 07530U 74089B   26198.94482058 -.00000046  00000+0  24040-5 0  9994
2 07530 101.9906 212.5120 0012645  73.3038 347.7353 12.53698623364378
PHASE 3B (AO-10)        
1 14129U 83058B   26194.10401075 -.00000187  00000+0  00000+0 0  9996
2 14129  25.9345 215.2934 6002223 122.7887 309.2966  2.05872336296023
UOSAT 2 (UO-11)         
1 14781U 84021B   26198.89455258  .00000531  00000+0  59556-4 0  9990
2 14781  97.8078 164.1312 0009250  83.9796 276.2476 14.90852514261707
LUSAT (LO-19)           
1 20442U 90005G   26198.81033976  .00000027  00000+0  26429-4 0  9994
2 20442  98.8847 221.4588 0012601 114.3508 245.8992 14.34131167906780
EYESAT A (AO-27)        
1 22825U 93061C   26198.62642570  .00000029  00000+0  28072-4 0  9999
2 22825  98.6866 266.0266 0008619  19.0842 341.0662 14.30949457711355
ITAMSAT (IO-26)         
1 22826U 93061D   26198.94626431  .00000035  00000+0  30204-4 0  9990
2 22826  98.6813 266.2668 0008760   1.3832 358.7374 14.31377167711715
RADIO ROSTO (RS15)      
1 23439U 94085A   26198.80240501 -.00000041  00000+0  29192-4 0  9995
2 23439  64.8150 253.7041 0157019 358.2286   1.8064 11.27583566299357
JAS-2 (FO-29)           
1 24278U 96046B   26198.40176102 -.00000019  00000+0  16007-4 0  9993
2 24278  98.5218  43.1320 0350252  18.2236 343.1097 13.53275797477251
TECHSAT 1B (GO-32)      
1 25397U 98043D   26198.90100485  .00000006  00000+0  22605-4 0  9997
2 25397  99.0087 192.4369 0002259 110.8324 249.3096 14.24433664455703
ISS (ZARYA)             
1 25544U 98067A   26198.83085672  .00003846  00000+0  77850-4 0  9996
2 25544  51.6316 148.4431 0006791 307.8623  52.1750 15.49035972576509
PCSAT (NO-44)           
1 26931U 01043C   26198.54195191  .00000019  00000+0  38081-4 0  9993
2 26931  67.0496 165.7597 0005892 266.8164  93.2264 14.31965477294796
SAUDISAT 1C (SO-50)     
1 27607U 02058C   26198.56666565  .00000339  00000+0  58139-4 0  9992
2 27607  64.5519  34.9873 0074455 256.8352 102.4439 14.83100826268961
CUTE-1 (CO-55)          
1 27844U 03031E   26198.94610370  .00000130  00000+0  75281-4 0  9998
2 27844  98.6744 207.1188 0010863  95.5982 264.6436 14.24352549196059
CUBESAT XI-IV (CO-57)   
1 27848U 03031J   26198.95002441  .00000107  00000+0  66203-4 0  9995
2 27848  98.6776 206.8106 0010632 112.1739 248.0569 14.23635431195756
MOZHAETS 4 (RS22)       
1 27939U 03042A   26198.99149093  .00000941  00000+0  15288-3 0  9999
2 27939  98.3471  24.2220 0011429 164.4046 350.7475 14.73518823220083
CUBESAT XI-V            
1 28895U 05043F   26197.95849456  .00000631  00000+0  10709-3 0  9998
2 28895  98.3017 354.2118 0015312 110.0551 250.2305 14.72704810106133
CUTE-1.7+APD II (CO-65) 
1 32785U 08021C   26198.93845789  .00002148  00000+0  13739-3 0  9995
2 32785  97.8298 181.0062 0006849 288.2126  71.8356 15.09714947989838
SEEDS II (CO-66)        
1 32791U 08021J   26198.93922495  .00010382  00000+0  32084-3 0  9995
2 32791  97.7530 198.3304 0003381 150.6464 209.4968 15.33723545992000
YUBILEINY (RS30)        
1 32953U 08025A   26198.92156706  .00000015  00000+0  34412-4 0  9992
2 32953  82.5067 336.3204 0018680 242.6036 117.3143 12.43180655823513
KKS-1 (KISEKI)          
1 33499U 09002H   26198.88549421  .00000595  00000+0  79688-4 0  9996
2 33499  98.1173 121.8141 0007644 180.0183 180.1031 14.83192769940747
SWISSCUBE               
1 35932U 09051B   26198.68225148  .00000433  00000+0  95101-4 0  9998
2 35932  98.4004 107.0987 0007946 112.4041 247.8002 14.62533257893618
BEESAT-1                
1 35933U 09051C   26198.70764305  .00000353  00000+0  80631-4 0  9998
2 35933  98.3931 106.6958 0006240 123.4432 236.7366 14.61763986893648
ITUPSAT1                
1 35935U 09051E   26198.17721015  .00000337  00000+0  79459-4 0  9990
2 35935  98.4015 105.3171 0008204 137.6090 222.5745 14.60480346893117
XIWANG-1 (HOPE-1)       
1 36122U 09072B   26198.94752442 -.00000366  00000+0 -84144-3 0  9995
2 36122 100.4042 152.2910 0007615 158.8103 201.3326 13.16438183797055
O/OREOS (USA 219)       
1 37224U 10062C   26198.86696531  .00000995  00000+0  99550-4 0  9991
2 37224  71.9699  10.8352 0014143 359.8966   0.2199 14.93857336121227
JUGNU                   
1 37839U 11058B   26198.92915556  .00000344  00000+0  40496-4 0  9990
2 37839  19.9598 121.6521 0018622  56.5720  11.8015 14.13783872763382
SRMSAT                  
1 37841U 11058D   26198.49217913  .00000324  00000+0  31755-4 0  9993
2 37841  19.9706 236.0426 0011702 176.3977 328.2795 14.11581368762101
STRAND-1                
1 39090U 13009E   26198.48055263  .00000107  00000+0  50178-4 0  9995
2 39090  98.3936  17.9715 0009516 134.8937 225.3024 14.37179617701414
ZACUBE-1 (TSHEPISOSAT)  
1 39417U 13066B   26198.86726362  .00001255  00000+0  10038-3 0  9993
2 39417  97.8005 161.3542 0044051 146.6146 213.7870 15.01335799685335
GOMX-1                  
1 39430U 13066Q   26198.82667955  .00000615  00000+0  99363-4 0  9994
2 39430  97.6462  37.3556 0128009 339.7357  19.8795 14.69546025674414
